[{"OBJECT_NAME":"CUBESX-HSE 3 (RS42S)","OBJECT_ID":"2023-091N","EPOCH":"2026-03-09T22:57:25.321248","MEAN_MOTION":15.286147,"ECCENTRICITY":0.00127191,"INCLINATION":97.5203,"RA_OF_ASC_NODE":133.4295,"ARG_OF_PERICENTER":86.5376,"MEAN_ANOMALY":273.7318,"EPHEMERIS_TYPE":0,"CLASSIFICATION_TYPE":"U","NORAD_CAT_ID":57178,"ELEMENT_SET_NO":999,"REV_AT_EPOCH":14925,"BSTAR":0.00059055694,"MEAN_MOTION_DOT":0.00016417,"MEAN_MOTION_DDOT":0},{"OBJECT_NAME":"STARLINK-31684","OBJECT_ID":"2024-071J","EPOCH":"2026-03-08T19:31:52.154976","MEAN_MOTION":15.27581574,"ECCENTRICITY":6.373e-5,"INCLINATION":42.998,"RA_OF_ASC_NODE":352.3031,"ARG_OF_PERICENTER":257.0512,"MEAN_ANOMALY":103.0268,"EPHEMERIS_TYPE":0,"CLASSIFICATION_TYPE":"U","NORAD_CAT_ID":59492,"ELEMENT_SET_NO":999,"REV_AT_EPOCH":10798,"BSTAR":-0.00013350334,"MEAN_MOTION_DOT":-3.934e-5,"MEAN_MOTION_DDOT":0}]
